[
    {
        "Altitude(m)": 707219.7581864513,
        "Argument of Periapsis(deg)": 0.007973084830638947,
        "Eccentricity": 0.0,
        "Inclination(deg)": 45.0,
        "Latitude(deg)": -17.159898966761023,
        "Longitude(deg)": 117.35374535217225,
        "Mean Anomaly(deg)": 204.43685165323657,
        "RAAN(deg)": 19.992473640979256,
        "Satellite Name": "Constellation 1 100",
        "Satellite Number": 100,
        "Semi-Major Axis(m)": 7083131.272910544,
        "Time(s)": 133
    },
    {
        "Altitude(m)": 707232.2014763317,
        "Argument of Periapsis(deg)": 0.008033032836884352,
        "Eccentricity": 0.0,
        "Inclination(deg)": 45.0,
        "Latitude(deg)": -17.200950085063518,
        "Longitude(deg)": 117.39652258072154,
        "Mean Anomaly(deg)": 204.49755279348645,
        "RAAN(deg)": 19.99241705181369,
        "Satellite Name": "Constellation 1 100",
        "Satellite Number": 100,
        "Semi-Major Axis(m)": 7083131.272910544,
        "Time(s)": 134
    },
    {
        "Altitude(m)": 707244.6557141907,
        "Argument of Periapsis(deg)": 0.008092980843129758,
        "Eccentricity": 0.0,
        "Inclination(deg)": 45.0,
        "Latitude(deg)": -17.241990034731362,
        "Longitude(deg)": 117.43932036066006,
        "Mean Anomaly(deg)": 204.55825393373638,
        "RAAN(deg)": 19.99236046264812,
        "Satellite Name": "Constellation 1 100",
        "Satellite Number": 100,
        "Semi-Major Axis(m)": 7083131.272910544,
        "Time(s)": 135
    },
    {
        "Altitude(m)": 707257.1208610116,
        "Argument of Periapsis(deg)": 0.008152928849375162,
        "Eccentricity": 0.0,
        "Inclination(deg)": 45.0,
        "Latitude(deg)": -17.28301878312896,
        "Longitude(deg)": 117.48213874779954,
        "Mean Anomaly(deg)": 204.61895507398626,
        "RAAN(deg)": 19.99230387348255,
        "Satellite Name": "Constellation 1 100",
        "Satellite Number": 100,
        "Semi-Major Axis(m)": 7083131.272910544,
        "Time(s)": 136
    },
    {
        "Altitude(m)": 707269.5968777138,
        "Argument of Periapsis(deg)": 0.008212876855620568,
        "Eccentricity": 0.0,
        "Inclination(deg)": 45.0,
        "Latitude(deg)": -17.324036297580726,
        "Longitude(deg)": 117.5249777979819,
        "Mean Anomaly(deg)": 204.67965621423616,
        "RAAN(deg)": 19.99224728431698,
        "Satellite Name": "Constellation 1 100",
        "Satellite Number": 100,
        "Semi-Major Axis(m)": 7083131.272910544,
        "Time(s)": 137
    },
    {
        "Altitude(m)": 707282.0837251552,
        "Argument of Periapsis(deg)": 0.008272824861865974,
        "Eccentricity": 0.0,
        "Inclination(deg)": 45.0,
        "Latitude(deg)": -17.365042545370876,
        "Longitude(deg)": 117.5678375670792,
        "Mean Anomaly(deg)": 204.74035735448604,
        "RAAN(deg)": 19.992190695151407,
        "Satellite Name": "Constellation 1 100",
        "Satellite Number": 100,
        "Semi-Major Axis(m)": 7083131.272910544,
        "Time(s)": 138
    },
    {
        "Altitude(m)": 707294.5813641483,
        "Argument of Periapsis(deg)": 0.00833277286811138,
        "Eccentricity": 0.0,
        "Inclination(deg)": 45.0,
        "Latitude(deg)": -17.406037493743522,
        "Longitude(deg)": 117.6107181109937,
        "Mean Anomaly(deg)": 204.80105849473597,
        "RAAN(deg)": 19.99213410598584,
        "Satellite Name": "Constellation 1 100",
        "Satellite Number": 100,
        "Semi-Major Axis(m)": 7083131.272910544,
        "Time(s)": 139
    },
    {
        "Altitude(m)": 707307.0897554423,
        "Argument of Periapsis(deg)": 0.008392720874356788,
        "Eccentricity": 0.0,
        "Inclination(deg)": 45.0,
        "Latitude(deg)": -17.447021109902213,
        "Longitude(deg)": 117.65361948565774,
        "Mean Anomaly(deg)": 204.86175963498584,
        "RAAN(deg)": 19.99207751682027,
        "Satellite Name": "Constellation 1 100",
        "Satellite Number": 100,
        "Semi-Major Axis(m)": 7083131.272910544,
        "Time(s)": 140
    },
    {
        "Altitude(m)": 707319.6088597294,
        "Argument of Periapsis(deg)": 0.008452668880602192,
        "Eccentricity": 0.0,
        "Inclination(deg)": 45.0,
        "Latitude(deg)": -17.487993361010094,
        "Longitude(deg)": 117.69654157893693,
        "Mean Anomaly(deg)": 204.92246077523578,
        "RAAN(deg)": 19.9920209276547,
        "Satellite Name": "Constellation 1 100",
        "Satellite Number": 100,
        "Semi-Major Axis(m)": 7083131.272910544,
        "Time(s)": 141
    },
    {
        "Altitude(m)": 707332.1386376454,
        "Argument of Periapsis(deg)": 0.008512616886847598,
        "Eccentricity": 0.0,
        "Inclination(deg)": 45.0,
        "Latitude(deg)": -17.52895421418986,
        "Longitude(deg)": 117.73948478301755,
        "Mean Anomaly(deg)": 204.98316191548565,
        "RAAN(deg)": 19.991964338489133,
        "Satellite Name": "Constellation 1 100",
        "Satellite Number": 100,
        "Semi-Major Axis(m)": 7083131.272910544,
        "Time(s)": 142
    },
    {
        "Altitude(m)": 707344.6790497705,
        "Argument of Periapsis(deg)": 0.008572564893093004,
        "Eccentricity": 0.0,
        "Inclination(deg)": 45.0,
        "Latitude(deg)": -17.569903636523346,
        "Longitude(deg)": 117.78244898582545,
        "Mean Anomaly(deg)": 205.04386305573556,
        "RAAN(deg)": 19.991907749323563,
        "Satellite Name": "Constellation 1 100",
        "Satellite Number": 100,
        "Semi-Major Axis(m)": 7083131.272910544,
        "Time(s)": 143
    },
    {
        "Altitude(m)": 707357.2300566372,
        "Argument of Periapsis(deg)": 0.008632512899338408,
        "Eccentricity": 0.0,
        "Inclination(deg)": 45.0,
        "Latitude(deg)": -17.610841595051525,
        "Longitude(deg)": 117.8254342434133,
        "Mean Anomaly(deg)": 205.10456419598543,
        "RAAN(deg)": 19.991851160157992,
        "Satellite Name": "Constellation 1 100",
        "Satellite Number": 100,
        "Semi-Major Axis(m)": 7083131.272910544,
        "Time(s)": 144
    },
    {
        "Altitude(m)": 707369.7916187108,
        "Argument of Periapsis(deg)": 0.008692460905583814,
        "Eccentricity": 0.0,
        "Inclination(deg)": 45.0,
        "Latitude(deg)": -17.651768056774582,
        "Longitude(deg)": 117.86844061186396,
        "Mean Anomaly(deg)": 205.16526533623536,
        "RAAN(deg)": 19.991794570992425,
        "Satellite Name": "Constellation 1 100",
        "Satellite Number": 100,
        "Semi-Major Axis(m)": 7083131.272910544,
        "Time(s)": 145
    },
    {
        "Altitude(m)": 707382.3636964026,
        "Argument of Periapsis(deg)": 0.00875240891182922,
        "Eccentricity": 0.0,
        "Inclination(deg)": 45.0,
        "Latitude(deg)": -17.692682988651523,
        "Longitude(deg)": 117.91146814729014,
        "Mean Anomaly(deg)": 205.22596647648524,
        "RAAN(deg)": 19.99173798182685,
        "Satellite Name": "Constellation 1 100",
        "Satellite Number": 100,
        "Semi-Major Axis(m)": 7083131.272910544,
        "Time(s)": 146
    },
    {
        "Altitude(m)": 707394.946250078,
        "Argument of Periapsis(deg)": 0.008812356918074627,
        "Eccentricity": 0.0,
        "Inclination(deg)": 45.0,
        "Latitude(deg)": -17.733586357600274,
        "Longitude(deg)": 117.95451690583468,
        "Mean Anomaly(deg)": 205.28666761673517,
        "RAAN(deg)": 19.991681392661285,
        "Satellite Name": "Constellation 1 100",
        "Satellite Number": 100,
        "Semi-Major Axis(m)": 7083131.272910544,
        "Time(s)": 147
    },
    {
        "Altitude(m)": 707407.53924004,
        "Argument of Periapsis(deg)": 0.008872304924320031,
        "Eccentricity": 0.0,
        "Inclination(deg)": 45.0,
        "Latitude(deg)": -17.774478130497332,
        "Longitude(deg)": 117.99758677557345,
        "Mean Anomaly(deg)": 205.34736875698505,
        "RAAN(deg)": 19.991624803495714,
        "Satellite Name": "Constellation 1 100",
        "Satellite Number": 100,
        "Semi-Major Axis(m)": 7083131.272910544,
        "Time(s)": 148
    },
    {
        "Altitude(m)": 707420.1426265325,
        "Argument of Periapsis(deg)": 0.008932252930565437,
        "Eccentricity": 0.0,
        "Inclination(deg)": 45.0,
        "Latitude(deg)": -17.815358274178198,
        "Longitude(deg)": 118.04067814890324,
        "Mean Anomaly(deg)": 205.40806989723495,
        "RAAN(deg)": 19.991568214330144,
        "Satellite Name": "Constellation 1 100",
        "Satellite Number": 100,
        "Semi-Major Axis(m)": 7083131.272910544,
        "Time(s)": 149
    },
    {
        "Altitude(m)": 707432.7563697565,
        "Argument of Periapsis(deg)": 0.008992200936810843,
        "Eccentricity": 0.0,
        "Inclination(deg)": 45.0,
        "Latitude(deg)": -17.856226755436467,
        "Longitude(deg)": 118.0837909139598,
        "Mean Anomaly(deg)": 205.46877103748483,
        "RAAN(deg)": 19.991511625164577,
        "Satellite Name": "Constellation 1 100",
        "Satellite Number": 100,
        "Semi-Major Axis(m)": 7083131.272910544,
        "Time(s)": 150
    },
    {
        "Altitude(m)": 707445.380429847,
        "Argument of Periapsis(deg)": 0.009052148943056249,
        "Eccentricity": 0.0,
        "Inclination(deg)": 45.0,
        "Latitude(deg)": -17.89708354102433,
        "Longitude(deg)": 118.12692512700589,
        "Mean Anomaly(deg)": 205.52947217773476,
        "RAAN(deg)": 19.991455035999007,
        "Satellite Name": "Constellation 1 100",
        "Satellite Number": 100,
        "Semi-Major Axis(m)": 7083131.272910544,
        "Time(s)": 151
    }
]